     2.10           N: GPS NAV DATA                         RINEX VERSION / TYPE
teqc  2013Mar15                         20151002 00:25:36UTCPGM / RUN BY / DATE
    17                                                      LEAP SECONDS
MSXP|IAx86-PII|bcc32 5.0|MSWin95->XP|486/DX+                COMMENT
     2.10           N: GPS NAV DATA                         COMMENT
teqc  2013Mar15                         20151001 01:00:30UTCCOMMENT
    2.2352D-08  7.4506D-09 -1.1921D-07 -5.9605D-08          ION ALPHA
    1.2902D+05  0.0000D+00 -2.6214D+05  2.6214D+05          ION BETA
    1.862645149231D-09-8.881784197001D-16   589824     1864 DELTA-UTC: A0,A1,T,W
                                                            END OF HEADER
 7 15 10  2  0  0  0.0 4.837550222874D-04-7.958078640513D-13 0.000000000000D+00
    4.100000000000D+01 4.081250000000D+01 4.660194115791D-09-9.247229878185D-01
    2.061948180199D-06 8.996441494673D-03 2.523884177208D-06 5.153693841934D+03
    4.320000000000D+05 2.123415470123D-07-1.023803715614D+00-4.470348358154D-08
    9.687215100878D-01 3.353125000000D+02-2.697156524584D+00-8.477495978878D-09
   -1.892935991239D-11 1.000000000000D+00 1.864000000000D+03 0.000000000000D+00
    2.000000000000D+00 0.000000000000D+00-1.117587089539D-08 4.100000000000D+01
    4.248180000000D+05 4.000000000000D+00
 8 15 10  2  0  0  0.0-7.246155291796D-06-1.250555214938D-12 0.000000000000D+00
    2.300000000000D+01-1.731250000000D+01 4.235533569831D-09-2.908030641732D+00
   -9.201467037201D-07 1.381554524414D-03 1.120381057262D-05 5.153586320877D+03
    4.320000000000D+05-5.960464477539D-08 1.040904366302D+00-2.607703208923D-08
    9.605267389370D-01 1.621875000000D+02-1.766988930181D+00-7.852469944035D-09
    4.032310819074D-10 1.000000000000D+00 1.864000000000D+03 0.000000000000D+00
    2.000000000000D+00 0.000000000000D+00 7.450580596924D-09 2.300000000000D+01
    4.248180000000D+05 4.000000000000D+00
19 15 10  2  0  0  0.0-5.209366790950D-04-5.684341886081D-13 0.000000000000D+00
    4.400000000000D+01-4.562500000000D+00 4.069812381164D-09 4.209835348312D-01
   -1.192092895508D-07 1.136763358954D-02 1.108832657337D-05 5.155148288727D+03
    4.320000000000D+05-6.332993507385D-08 1.139475297868D+00 2.738088369370D-07
    9.706912122481D-01 1.709375000000D+02 6.530146906944D-01-7.917472651659D-09
    4.435899058715D-10 1.000000000000D+00 1.864000000000D+03 0.000000000000D+00
    2.000000000000D+00 0.000000000000D+00-1.490116119385D-08 4.400000000000D+01
    4.252020000000D+05 4.000000000000D+00
15 15 10  2  0  0  0.0-2.746041864157D-04-2.046363078989D-12 0.000000000000D+00
    5.500000000000D+01 8.206250000000D+01 5.139499795082D-09 1.161884072198D+00
    4.567205905914D-06 7.497017038986D-03 1.091882586479D-05 5.153732660294D+03
    4.320000000000D+05-9.313225746155D-09-2.148137667996D+00 9.685754776001D-08
    9.323980090454D-01 1.518437500000D+02 4.098816045969D-01-8.408564536178D-09
   -1.310768884500D-10 1.000000000000D+00 1.864000000000D+03 0.000000000000D+00
    2.000000000000D+00 0.000000000000D+00-1.071020960808D-08 5.500000000000D+01
    4.254480000000D+05 4.000000000000D+00
20 15 10  1 23 59 44.0 3.597936592996D-04 3.069544618484D-12 0.000000000000D+00
    1.200000000000D+01-3.571875000000D+01 5.613090950626D-09 1.219824042842D+00
   -1.830980181694D-06 4.920968902297D-03 8.488073945045D-06 5.153646301270D+03
    4.319840000000D+05-1.080334186554D-07 3.063504689050D+00-1.676380634308D-08
    9.266380821727D-01 2.004687500000D+02 1.234543380350D+00-8.600001081708D-09
   -3.835874065266D-10 1.000000000000D+00 1.864000000000D+03 0.000000000000D+00
    2.000000000000D+00 0.000000000000D+00-8.381903171539D-09 1.200000000000D+01
    4.264560000000D+05 4.000000000000D+00
28 15 10  1 23 59 44.0 4.714699462056D-04 2.614797267597D-12 0.000000000000D+00
    5.000000000000D+00-1.170000000000D+02 3.674795927144D-09 2.691773006533D+00
   -5.925074219704D-06 1.974176359363D-02 7.500872015953D-06 5.153702053070D+03
    4.319840000000D+05 2.104789018631D-07 7.108866663688D-02-4.470348358154D-08
    9.895819055899D-01 2.460000000000D+02-1.657055042834D+00-7.490669159294D-09
   -3.857303529318D-10 1.000000000000D+00 1.864000000000D+03 0.000000000000D+00
    2.000000000000D+00 0.000000000000D+00-1.117587089539D-08 5.000000000000D+00
    4.266060000000D+05 4.000000000000D+00
17 15 10  2  0  0  0.0-1.896070316434D-04-1.250555214938D-12 0.000000000000D+00
    4.900000000000D+01-2.434375000000D+01 3.946950120601D-09 1.885008851442D+00
   -1.236796379089D-06 1.042042393237D-02 1.161731779575D-05 5.153580686569D+03
    4.320000000000D+05-1.341104507446D-07 1.090223954649D+00-2.291053533554D-07
    9.736547916931D-01 1.597187500000D+02-2.006671191487D+00-7.750679989789D-09
    4.978778814693D-10 1.000000000000D+00 1.864000000000D+03 0.000000000000D+00
    2.000000000000D+00 0.000000000000D+00-1.071020960808D-08 4.900000000000D+01
    4.299660000000D+05 4.000000000000D+00
24 15 10  2  0  0  0.0-5.627982318401D-06-5.684341886081D-13 0.000000000000D+00
    8.600000000000D+01 4.584375000000D+01 5.094855078307D-09 3.345304949950D-02
    2.266839146614D-06 3.457639482804D-03 3.041699528694D-06 5.153653841019D+03
    4.320000000000D+05-3.539025783539D-08-1.066879272627D+00 4.284083843231D-08
    9.518572377032D-01 3.121562500000D+02 2.999520255430D-01-8.656789161445D-09
   -5.393081786361D-11 1.000000000000D+00 1.864000000000D+03 0.000000000000D+00
    2.000000000000D+00 0.000000000000D+00 2.328306436539D-09 8.600000000000D+01
    4.309680000000D+05 4.000000000000D+00
18 15 10  2  0  0  0.0 4.389877431095D-04 3.524291969370D-12 0.000000000000D+00
    6.500000000000D+01-3.806250000000D+01 5.435226398996D-09-2.850205356551D+00
   -2.058222889900D-06 1.636554719880D-02 8.627772331238D-06 5.153635850906D+03
    4.320000000000D+05 2.924352884293D-07 3.115633779384D+00-1.396983861923D-07
    9.254395280195D-01 1.902812500000D+02-1.935641364878D+00-8.257843972348D-09
   -3.157274370293D-10 1.000000000000D+00 1.864000000000D+03 0.000000000000D+00
    2.000000000000D+00 0.000000000000D+00-1.117587089539D-08 6.500000000000D+01
    4.311960000000D+05 4.000000000000D+00
